[{"OBJECT_NAME":"STARLINK-4412","OBJECT_ID":"2022-099N","EPOCH":"2026-03-09T22:13:07.504320","MEAN_MOTION":15.01261959,"ECCENTRICITY":0.00017609,"INCLINATION":97.6028,"RA_OF_ASC_NODE":190.4088,"ARG_OF_PERICENTER":62.3246,"MEAN_ANOMALY":297.8157,"EPHEMERIS_TYPE":0,"CLASSIFICATION_TYPE":"U","NORAD_CAT_ID":53477,"ELEMENT_SET_NO":999,"REV_AT_EPOCH":19671,"BSTAR":3.6846159e-5,"MEAN_MOTION_DOT":4.15e-6,"MEAN_MOTION_DDOT":0},{"OBJECT_NAME":"COSMOS 397 DEB","OBJECT_ID":"1971-015Q","EPOCH":"2026-03-09T09:55:46.248672","MEAN_MOTION":13.29121432,"ECCENTRICITY":0.07989519,"INCLINATION":65.7091,"RA_OF_ASC_NODE":48.0294,"ARG_OF_PERICENTER":310.7715,"MEAN_ANOMALY":42.6567,"EPHEMERIS_TYPE":0,"CLASSIFICATION_TYPE":"U","NORAD_CAT_ID":5088,"ELEMENT_SET_NO":999,"REV_AT_EPOCH":61373,"BSTAR":0.0012619219,"MEAN_MOTION_DOT":3.538e-5,"MEAN_MOTION_DDOT":0}]
